start=new Date('2021-09-08T00:00:00.000Z').valueOf();
sats=[{"MEAN_MOTION_DOT":"0.00000978","CLASSIFICATION_TYPE":"U","GP_ID":"184281605","PERIAPSIS":"546.568","APOAPSIS":"547.892","CENTER_NAME":"EARTH","ECCENTRICITY":"0.00009560","NORAD_CAT_ID":"46076","SEMIMAJOR_AXIS":"6925.365","BSTAR":"0.00008455900000","INCLINATION":"53.0539","MEAN_ANOMALY":"284.7794","ARG_OF_PERICENTER":"75.3301","REF_FRAME":"TEME","TIME_SYSTEM":"UTC","LAUNCH_DATE":"2020-08-07","TLE_LINE1":"1 46076U 20055BB  21250.76957645  .00000978  00000-0  84559-4 0  9993","OBJECT_NAME":"STARLINK-1552","RA_OF_ASC_NODE":"276.4755","TLE_LINE2":"2 46076  53.0539 276.4755 0000956  75.3301 284.7794 15.06394741 61519","MEAN_MOTION":"15.06394741","ELEMENT_SET_NO":"999","FILE":"3110443","EPHEMERIS_TYPE":"0","RCS_SIZE":"LARGE","SITE":"AFETR","EPOCH":"2021-09-07T18:28:11.405280","OBJECT_TYPE":"PAYLOAD","DECAY_DATE":null,"OBJECT_ID":"2020-055BB","PERIOD":"95.592","MEAN_MOTION_DDOT":"0.0000000000000","COUNTRY_CODE":"US","REV_AT_EPOCH":"6151","MEAN_ELEMENT_THEORY":"SGP4"},{"INCLINATION":"53.0530","MEAN_ANOMALY":"270.8451","ARG_OF_PERICENTER":"89.2630","REF_FRAME":"TEME","TIME_SYSTEM":"UTC","LAUNCH_DATE":"2020-08-07","MEAN_MOTION_DOT":"-0.00001680","CLASSIFICATION_TYPE":"U","GP_ID":"184281857","PERIAPSIS":"546.668","APOAPSIS":"547.783","CENTER_NAME":"EARTH","ECCENTRICITY":"0.00008050","NORAD_CAT_ID":"46077","SEMIMAJOR_AXIS":"6925.361","BSTAR":"-0.00009394100000","ELEMENT_SET_NO":"999","FILE":"3110443","EPHEMERIS_TYPE":"0","RCS_SIZE":"LARGE","SITE":"AFETR","OBJECT_TYPE":"PAYLOAD","EPOCH":"2021-09-07T19:37:11.761536","OBJECT_ID":"2020-055BC","DECAY_DATE":null,"PERIOD":"95.592","MEAN_MOTION_DDOT":"0.0000000000000","COUNTRY_CODE":"US","MEAN_ELEMENT_THEORY":"SGP4","REV_AT_EPOCH":"6149","TLE_LINE1":"1 46077U 20055BC  21250.81749724 -.00001680  00000-0 -93941-4 0  9995","OBJECT_NAME":"STARLINK-1559","RA_OF_ASC_NODE":"276.2564","MEAN_MOTION":"15.06395986","TLE_LINE2":"2 46077  53.0530 276.2564 0000805  89.2630 270.8451 15.06395986 61494"},{"ECCENTRICITY":"0.00009030","NORAD_CAT_ID":"46078","SEMIMAJOR_AXIS":"6925.365","BSTAR":"0.00007761400000","CLASSIFICATION_TYPE":"U","MEAN_MOTION_DOT":"0.00000875","GP_ID":"184282607","PERIAPSIS":"546.605","CENTER_NAME":"EARTH","APOAPSIS":"547.855","REF_FRAME":"TEME","TIME_SYSTEM":"UTC","LAUNCH_DATE":"2020-08-07","INCLINATION":"53.0544","MEAN_ANOMALY":"267.1906","ARG_OF_PERICENTER":"92.9186","RA_OF_ASC_NODE":"276.3542","TLE_LINE2":"2 46078  53.0544 276.3542 0000903  92.9186 267.1906 15.06394600 61501","MEAN_MOTION":"15.06394600","TLE_LINE1":"1 46078U 20055BD  21250.79538133  .00000875  00000-0  77614-4 0  9995","OBJECT_NAME":"STARLINK-1563","RCS_SIZE":"LARGE","EPOCH":"2021-09-07T19:05:20.946912","SITE":"AFETR","OBJECT_TYPE":"PAYLOAD","DECAY_DATE":null,"OBJECT_ID":"2020-055BD","MEAN_MOTION_DDOT":"0.0000000000000","PERIOD":"95.592","REV_AT_EPOCH":"6150","COUNTRY_CODE":"US","MEAN_ELEMENT_THEORY":"SGP4","ELEMENT_SET_NO":"999","FILE":"3110443","EPHEMERIS_TYPE":"0"},{"REF_FRAME":"TEME","LAUNCH_DATE":"2020-08-07","TIME_SYSTEM":"UTC","ARG_OF_PERICENTER":"88.3166","INCLINATION":"53.0538","MEAN_ANOMALY":"271.7942","NORAD_CAT_ID":"46079","ECCENTRICITY":"0.00010380","BSTAR":"0.00008236800000","SEMIMAJOR_AXIS":"6925.343","GP_ID":"184281355","MEAN_MOTION_DOT":"0.00000946","CLASSIFICATION_TYPE":"U","CENTER_NAME":"EARTH","APOAPSIS":"547.927","PERIAPSIS":"546.489","EPOCH":"2021-09-07T18:54:42.631488","SITE":"AFETR","OBJECT_TYPE":"PAYLOAD","OBJECT_ID":"2020-055BE","DECAY_DATE":null,"RCS_SIZE":"LARGE","COUNTRY_CODE":"US","MEAN_ELEMENT_THEORY":"SGP4","REV_AT_EPOCH":"6153","MEAN_MOTION_DDOT":"0.0000000000000","PERIOD":"95.592","ELEMENT_SET_NO":"999","FILE":"3110443","EPHEMERIS_TYPE":"0","RA_OF_ASC_NODE":"276.3885","TLE_LINE2":"2 46079  53.0538 276.3885 0001038  88.3166 271.7942 15.06401888 61533","MEAN_MOTION":"15.06401888","TLE_LINE1":"1 46079U 20055BE  21250.78799342  .00000946  00000-0  82368-4 0  9997","OBJECT_NAME":"STARLINK-1566"},{"FILE":"3110443","EPHEMERIS_TYPE":"0","ELEMENT_SET_NO":"999","MEAN_MOTION_DDOT":"0.0000000000000","PERIOD":"95.592","COUNTRY_CODE":"US","REV_AT_EPOCH":"6151","MEAN_ELEMENT_THEORY":"SGP4","RCS_SIZE":"LARGE","EPOCH":"2021-09-07T19:31:53.534784","SITE":"AFETR","OBJECT_TYPE":"PAYLOAD","DECAY_DATE":null,"OBJECT_ID":"2020-055BF","OBJECT_NAME":"STARLINK-1568","TLE_LINE1":"1 46080U 20055BF  21250.81381406  .00000624  00000-0  60746-4 0  9990","TLE_LINE2":"2 46080  53.0550 276.2755 0000997  73.0489 287.0609 15.06398527 61519","MEAN_MOTION":"15.06398527","RA_OF_ASC_NODE":"276.2755","INCLINATION":"53.0550","MEAN_ANOMALY":"287.0609","ARG_OF_PERICENTER":"73.0489","TIME_SYSTEM":"UTC","LAUNCH_DATE":"2020-08-07","REF_FRAME":"TEME","PERIAPSIS":"546.528","APOAPSIS":"547.909","CENTER_NAME":"EARTH","MEAN_MOTION_DOT":"0.00000624","CLASSIFICATION_TYPE":"U","GP_ID":"184281106","SEMIMAJOR_AXIS":"6925.353","BSTAR":"0.00006074600000","ECCENTRICITY":"0.00009970","NORAD_CAT_ID":"46080"},{"ELEMENT_SET_NO":"999","EPHEMERIS_TYPE":"0","FILE":"3110443","OBJECT_ID":"2020-055BG","DECAY_DATE":null,"EPOCH":"2021-09-07T18:44:06.935712","SITE":"AFETR","OBJECT_TYPE":"PAYLOAD","RCS_SIZE":"LARGE","MEAN_ELEMENT_THEORY":"SGP4","COUNTRY_CODE":"US","REV_AT_EPOCH":"6152","MEAN_MOTION_DDOT":"0.0000000000000","PERIOD":"95.592","TLE_LINE1":"1 46081U 20055BG  21250.78063583  .00000238  00000-0  34847-4 0  9994","OBJECT_NAME":"STARLINK-1571","RA_OF_ASC_NODE":"276.4115","TLE_LINE2":"2 46081  53.0545 276.4115 0001016  78.5358 281.5745 15.06397153 61529","MEAN_MOTION":"15.06397153","ARG_OF_PERICENTER":"78.5358","MEAN_ANOMALY":"281.5745","INCLINATION":"53.0545","REF_FRAME":"TEME","LAUNCH_DATE":"2020-08-07","TIME_SYSTEM":"UTC","GP_ID":"184282357","MEAN_MOTION_DOT":"0.00000238","CLASSIFICATION_TYPE":"U","CENTER_NAME":"EARTH","APOAPSIS":"547.926","PERIAPSIS":"546.519","NORAD_CAT_ID":"46081","ECCENTRICITY":"0.00010160","BSTAR":"0.00003484700000","SEMIMAJOR_AXIS":"6925.357"},{"APOAPSIS":"547.793","CENTER_NAME":"EARTH","PERIAPSIS":"546.635","GP_ID":"184282108","MEAN_MOTION_DOT":"-0.00000481","CLASSIFICATION_TYPE":"U","BSTAR":"-0.00001342300000","SEMIMAJOR_AXIS":"6925.349","NORAD_CAT_ID":"46082","ECCENTRICITY":"0.00008360","ARG_OF_PERICENTER":"74.4280","MEAN_ANOMALY":"285.6801","INCLINATION":"53.0531","LAUNCH_DATE":"2020-08-07","TIME_SYSTEM":"UTC","REF_FRAME":"TEME","OBJECT_NAME":"STARLINK-1578","TLE_LINE1":"1 46082U 20055BH  21250.80275283 -.00000481  00000-0 -13423-4 0  9999","MEAN_MOTION":"15.06399858","TLE_LINE2":"2 46082  53.0531 276.3244 0000836  74.4280 285.6801 15.06399858 61538","RA_OF_ASC_NODE":"276.3244","EPHEMERIS_TYPE":"0","FILE":"3110443","ELEMENT_SET_NO":"999","MEAN_ELEMENT_THEORY":"SGP4","COUNTRY_CODE":"US","REV_AT_EPOCH":"6153","PERIOD":"95.592","MEAN_MOTION_DDOT":"0.0000000000000","OBJECT_ID":"2020-055BH","DECAY_DATE":null,"OBJECT_TYPE":"PAYLOAD","SITE":"AFETR","EPOCH":"2021-09-07T19:15:57.844512","RCS_SIZE":"LARGE"},{"OBJECT_NAME":"STARLINK-1579","TLE_LINE1":"1 46083U 20055BJ  21250.77326283  .00001092  00000-0  92188-4 0  9995","MEAN_MOTION":"15.06396497","TLE_LINE2":"2 46083  53.0534 276.4526 0000999  70.9976 289.1121 15.06396497 61528","RA_OF_ASC_NODE":"276.4526","FILE":"3110443","EPHEMERIS_TYPE":"0","ELEMENT_SET_NO":"999","MEAN_MOTION_DDOT":"0.0000000000000","PERIOD":"95.592","REV_AT_EPOCH":"6152","COUNTRY_CODE":"US","MEAN_ELEMENT_THEORY":"SGP4","RCS_SIZE":"LARGE","SITE":"AFETR","OBJECT_TYPE":"PAYLOAD","EPOCH":"2021-09-07T18:33:29.908512","DECAY_DATE":null,"OBJECT_ID":"2020-055BJ","PERIAPSIS":"546.532","CENTER_NAME":"EARTH","APOAPSIS":"547.916","MEAN_MOTION_DOT":"0.00001092","CLASSIFICATION_TYPE":"U","GP_ID":"184280856","SEMIMAJOR_AXIS":"6925.359","BSTAR":"0.00009218800000","ECCENTRICITY":"0.00009990","NORAD_CAT_ID":"46083","INCLINATION":"53.0534","MEAN_ANOMALY":"289.1121","ARG_OF_PERICENTER":"70.9976","TIME_SYSTEM":"UTC","LAUNCH_DATE":"2020-08-07","REF_FRAME":"TEME"},{"SEMIMAJOR_AXIS":"6925.349","BSTAR":"-0.00001743900000","ECCENTRICITY":"0.00021090","NORAD_CAT_ID":"46117","PERIAPSIS":"545.754","APOAPSIS":"548.675","CENTER_NAME":"EARTH","MEAN_MOTION_DOT":"-0.00000542","CLASSIFICATION_TYPE":"U","GP_ID":"184284115","TIME_SYSTEM":"UTC","LAUNCH_DATE":"2020-08-18","REF_FRAME":"TEME","INCLINATION":"53.0548","MEAN_ANOMALY":"282.7277","ARG_OF_PERICENTER":"77.3948","MEAN_MOTION":"15.06399710","TLE_LINE2":"2 46117  53.0548 116.6034 0002109  77.3948 282.7277 15.06399710 58567","RA_OF_ASC_NODE":"116.6034","OBJECT_NAME":"STARLINK-1585","TLE_LINE1":"1 46117U 20057A   21250.74008508 -.00000542  00000-0 -17439-4 0  9996","PERIOD":"95.592","MEAN_MOTION_DDOT":"0.0000000000000","COUNTRY_CODE":"US","MEAN_ELEMENT_THEORY":"SGP4","REV_AT_EPOCH":"5856","RCS_SIZE":"LARGE","EPOCH":"2021-09-07T17:45:43.350912","SITE":"AFETR","OBJECT_TYPE":"PAYLOAD","DECAY_DATE":null,"OBJECT_ID":"2020-057A","FILE":"3110443","EPHEMERIS_TYPE":"0","ELEMENT_SET_NO":"999"},{"TLE_LINE1":"1 46118U 20057B   21250.94834194 -.00001873  00000-0 -10684-3 0  9999","OBJECT_NAME":"STARLINK-1588","RA_OF_ASC_NODE":"135.6748","TLE_LINE2":"2 46118  53.0553 135.6748 0002279  72.7224 287.4014 15.06404734 59599","MEAN_MOTION":"15.06404734","ELEMENT_SET_NO":"999","FILE":"3110443","EPHEMERIS_TYPE":"0","RCS_SIZE":"LARGE","SITE":"AFETR","EPOCH":"2021-09-07T22:45:36.743616","OBJECT_TYPE":"PAYLOAD","OBJECT_ID":"2020-057B","DECAY_DATE":null,"PERIOD":"95.592","MEAN_MOTION_DDOT":"0.0000000000000","COUNTRY_CODE":"US","MEAN_ELEMENT_THEORY":"SGP4","REV_AT_EPOCH":"5959","MEAN_MOTION_DOT":"-0.00001873","CLASSIFICATION_TYPE":"U","GP_ID":"184283866","PERIAPSIS":"545.621","CENTER_NAME":"EARTH","APOAPSIS":"548.777","ECCENTRICITY":"0.00022790","NORAD_CAT_ID":"46118","SEMIMAJOR_AXIS":"6925.334","BSTAR":"-0.00010684000000","INCLINATION":"53.0553","MEAN_ANOMALY":"287.4014","ARG_OF_PERICENTER":"72.7224","REF_FRAME":"TEME","TIME_SYSTEM":"UTC","LAUNCH_DATE":"2020-08-18"}];
